{
  "links" : {
    "next" : "https://api.nasa.gov/neo/rest/v1/feed?start_date=2009-12-16&end_date=2009-12-16&detailed=true&api_key=t0TVs3DtDT2H8Oy2Zy8m2eVrNsAVKAexjcZXUckd",
    "prev" : "https://api.nasa.gov/neo/rest/v1/feed?start_date=2009-12-14&end_date=2009-12-14&detailed=true&api_key=t0TVs3DtDT2H8Oy2Zy8m2eVrNsAVKAexjcZXUckd",
    "self" : "https://api.nasa.gov/neo/rest/v1/feed?start_date=2009-12-15&end_date=2009-12-15&detailed=true&api_key=t0TVs3DtDT2H8Oy2Zy8m2eVrNsAVKAexjcZXUckd"
  },
  "element_count" : 4,
  "near_earth_objects" : {
    "2009-12-15" : [ {
      "links" : {
        "self" : "https://api.nasa.gov/neo/rest/v1/neo/3483205?api_key=t0TVs3DtDT2H8Oy2Zy8m2eVrNsAVKAexjcZXUckd"
      },
      "neo_reference_id" : "3483205",
      "name" : "(2009 XR1)",
      "nasa_jpl_url" : "http://ssd.jpl.nasa.gov/sbdb.cgi?sstr=3483205",
      "absolute_magnitude_h" : 29.2,
      "estimated_diameter" : {
        "kilometers" : {
          "estimated_diameter_min" : 0.0038419789,
          "estimated_diameter_max" : 0.008590926
        },
        "meters" : {
          "estimated_diameter_min" : 3.8419789106,
          "estimated_diameter_max" : 8.5909260123
        },
        "miles" : {
          "estimated_diameter_min" : 0.0023872943,
          "estimated_diameter_max" : 0.0053381523
        },
        "feet" : {
          "estimated_diameter_min" : 12.6049180892,
          "estimated_diameter_max" : 28.1854536983
        }
      },
      "is_potentially_hazardous_asteroid" : false,
      "close_approach_data" : [ {
        "close_approach_date" : "2009-12-15",
        "epoch_date_close_approach" : 1260864000000,
        "relative_velocity" : {
          "kilometers_per_second" : "6.3549469837",
          "kilometers_per_hour" : "22877.8091412506",
          "miles_per_hour" : "14215.3809077954"
        },
        "miss_distance" : {
          "astronomical" : "0.0050052623",
          "lunar" : "1.9470469952",
          "kilometers" : "748776.5625",
          "miles" : "465268.21875"
        },
        "orbiting_body" : "Earth"
      } ],
      "orbital_data" : {
        "orbit_id" : "6",
        "orbit_determination_date" : "2017-04-06 08:58:49",
        "orbit_uncertainty" : "9",
        "minimum_orbit_intersection" : ".00104849",
        "jupiter_tisserand_invariant" : "4.218",
        "epoch_osculation" : "2455176.5",
        "eccentricity" : ".4069792643135227",
        "semi_major_axis" : "1.628093205667553",
        "inclination" : ".4728961885145143",
        "ascending_node_longitude" : "258.0039466184463",
        "orbital_period" : "758.7825290966288",
        "perihelion_distance" : ".9654930305911275",
        "perihelion_argument" : "208.4158876481019",
        "aphelion_distance" : "2.290693380743979",
        "perihelion_time" : "2455199.694385003442",
        "mean_anomaly" : "348.9955576452449",
        "mean_motion" : ".4744442395485822",
        "equinox" : "J2000"
      }
    }, {
      "links" : {
        "self" : "https://api.nasa.gov/neo/rest/v1/neo/2033342?api_key=t0TVs3DtDT2H8Oy2Zy8m2eVrNsAVKAexjcZXUckd"
      },
      "neo_reference_id" : "2033342",
      "name" : "33342 (1998 WT24)",
      "nasa_jpl_url" : "http://ssd.jpl.nasa.gov/sbdb.cgi?sstr=2033342",
      "absolute_magnitude_h" : 17.9,
      "estimated_diameter" : {
        "kilometers" : {
          "estimated_diameter_min" : 0.6991252322,
          "estimated_diameter_max" : 1.5632915441
        },
        "meters" : {
          "estimated_diameter_min" : 699.1252322458,
          "estimated_diameter_max" : 1563.2915440869
        },
        "miles" : {
          "estimated_diameter_min" : 0.4344161447,
          "estimated_diameter_max" : 0.97138403
        },
        "feet" : {
          "estimated_diameter_min" : 2293.7180269613,
          "estimated_diameter_max" : 5128.9094295021
        }
      },
      "is_potentially_hazardous_asteroid" : true,
      "close_approach_data" : [ {
        "close_approach_date" : "2009-12-15",
        "epoch_date_close_approach" : 1260864000000,
        "relative_velocity" : {
          "kilometers_per_second" : "23.7124962707",
          "kilometers_per_hour" : "85364.9865744552",
          "miles_per_hour" : "53042.4829078886"
        },
        "miss_distance" : {
          "astronomical" : "0.430744418",
          "lunar" : "167.5595703125",
          "kilometers" : "64438448",
          "miles" : "40040196"
        },
        "orbiting_body" : "Earth"
      } ],
      "orbital_data" : {
        "orbit_id" : "167",
        "orbit_determination_date" : "2017-04-06 09:29:19",
        "orbit_uncertainty" : "0",
        "minimum_orbit_intersection" : ".010566",
        "jupiter_tisserand_invariant" : "7.912",
        "epoch_osculation" : "2454724.5",
        "eccentricity" : ".4179262386660452",
        "semi_major_axis" : ".7184976905003903",
        "inclination" : "7.341854914201308",
        "ascending_node_longitude" : "82.00123323283424",
        "orbital_period" : "222.4520906135928",
        "perihelion_distance" : ".4182186532193219",
        "perihelion_argument" : "167.2965171869824",
        "aphelion_distance" : "1.018776727781459",
        "perihelion_time" : "2454797.912344354854",
        "mean_anomaly" : "241.1948950677448",
        "mean_motion" : "1.618325991034775",
        "equinox" : "J2000"
      }
    }, {
      "links" : {
        "self" : "https://api.nasa.gov/neo/rest/v1/neo/3160748?api_key=t0TVs3DtDT2H8Oy2Zy8m2eVrNsAVKAexjcZXUckd"
      },
      "neo_reference_id" : "3160748",
      "name" : "(2003 SW130)",
      "nasa_jpl_url" : "http://ssd.jpl.nasa.gov/sbdb.cgi?sstr=3160748",
      "absolute_magnitude_h" : 29.1,
      "estimated_diameter" : {
        "kilometers" : {
          "estimated_diameter_min" : 0.0040230458,
          "estimated_diameter_max" : 0.0089958039
        },
        "meters" : {
          "estimated_diameter_min" : 4.0230457983,
          "estimated_diameter_max" : 8.9958038817
        },
        "miles" : {
          "estimated_diameter_min" : 0.002499804,
          "estimated_diameter_max" : 0.0055897317
        },
        "feet" : {
          "estimated_diameter_min" : 13.198969577,
          "estimated_diameter_max" : 29.5137932072
        }
      },
      "is_potentially_hazardous_asteroid" : false,
      "close_approach_data" : [ {
        "close_approach_date" : "2009-12-15",
        "epoch_date_close_approach" : 1260864000000,
        "relative_velocity" : {
          "kilometers_per_second" : "22.6476101938",
          "kilometers_per_hour" : "81531.3966975277",
          "miles_per_hour" : "50660.4392424166"
        },
        "miss_distance" : {
          "astronomical" : "0.4442795727",
          "lunar" : "172.8247528076",
          "kilometers" : "66463280",
          "miles" : "41298368"
        },
        "orbiting_body" : "Earth"
      } ],
      "orbital_data" : {
        "orbit_id" : "8",
        "orbit_determination_date" : "2017-04-06 09:13:48",
        "orbit_uncertainty" : "6",
        "minimum_orbit_intersection" : ".000786163",
        "jupiter_tisserand_invariant" : "6.671",
        "epoch_osculation" : "2458000.5",
        "eccentricity" : ".3042872619563065",
        "semi_major_axis" : ".8837984709450448",
        "inclination" : "3.669438817754838",
        "ascending_node_longitude" : "176.4091170359373",
        "orbital_period" : "303.4787563423772",
        "perihelion_distance" : ".6148698541000068",
        "perihelion_argument" : "47.7591056089857",
        "aphelion_distance" : "1.152727087790083",
        "perihelion_time" : "2457979.600653171576",
        "mean_anomaly" : "24.79173484467748",
        "mean_motion" : "1.18624448161985",
        "equinox" : "J2000"
      }
    }, {
      "links" : {
        "self" : "https://api.nasa.gov/neo/rest/v1/neo/3467177?api_key=t0TVs3DtDT2H8Oy2Zy8m2eVrNsAVKAexjcZXUckd"
      },
      "neo_reference_id" : "3467177",
      "name" : "(2009 SB)",
      "nasa_jpl_url" : "http://ssd.jpl.nasa.gov/sbdb.cgi?sstr=3467177",
      "absolute_magnitude_h" : 20.5,
      "estimated_diameter" : {
        "kilometers" : {
          "estimated_diameter_min" : 0.2111324448,
          "estimated_diameter_max" : 0.4721064988
        },
        "meters" : {
          "estimated_diameter_min" : 211.1324447897,
          "estimated_diameter_max" : 472.1064988055
        },
        "miles" : {
          "estimated_diameter_min" : 0.1311915784,
          "estimated_diameter_max" : 0.2933532873
        },
        "feet" : {
          "estimated_diameter_min" : 692.6917701639,
          "estimated_diameter_max" : 1548.9058855411
        }
      },
      "is_potentially_hazardous_asteroid" : true,
      "close_approach_data" : [ {
        "close_approach_date" : "2009-12-15",
        "epoch_date_close_approach" : 1260864000000,
        "relative_velocity" : {
          "kilometers_per_second" : "23.2782795319",
          "kilometers_per_hour" : "83801.8063148155",
          "miles_per_hour" : "52071.1834848919"
        },
        "miss_distance" : {
          "astronomical" : "0.4850229572",
          "lunar" : "188.6739349365",
          "kilometers" : "72558400",
          "miles" : "45085700"
        },
        "orbiting_body" : "Earth"
      } ],
      "orbital_data" : {
        "orbit_id" : "20",
        "orbit_determination_date" : "2017-04-06 09:00:04",
        "orbit_uncertainty" : "6",
        "minimum_orbit_intersection" : ".0256712",
        "jupiter_tisserand_invariant" : "3.130",
        "epoch_osculation" : "2458000.5",
        "eccentricity" : ".8042822543250194",
        "semi_major_axis" : "2.205460558120721",
        "inclination" : "5.461023070338148",
        "ascending_node_longitude" : "217.7330539346292",
        "orbital_period" : "1196.320018262834",
        "perihelion_distance" : ".4316477686104719",
        "perihelion_argument" : "269.0623766675347",
        "aphelion_distance" : "3.979273347630969",
        "perihelion_time" : "2457590.156584634925",
        "mean_anomaly" : "123.4816999434109",
        "mean_motion" : ".3009228254181961",
        "equinox" : "J2000"
      }
    } ]
  }
}